NORAD_CAT_ID,OBJECT_NAME,OBJECT_TYPE,EPOCH,MEAN_MOTION,ECCENTRICITY,INCLINATION,RA_OF_ASC_NODE,ARG_OF_PERICENTER,MEAN_ANOMALY,BSTAR,MEAN_MOTION_DOT,MEAN_MOTION_DDOT,TLE_LINE0,TLE_LINE1,TLE_LINE2,SEMIMAJOR_AXIS,PERIOD,APOGEE,PERIGEE,DECAYED
53141.0,STARLINK-4103,PAYLOAD,2024-01-19 03:19:23,15.08835893,0.0001898,53.2177,78.1511,116.7654,243.3533,-4.1994e-05,-9.56e-06,0.0,0 STARLINK-4103,1 53141U 22083K   24019.13846593 -.00000956  00000-0 -41994-4 0  9997,2 53141  53.2177  78.1511 0001898 116.7654 243.3533 15.08835893 84016,6917.893,95.438,541.071,538.445,0.0
53141.0,STARLINK-4103,PAYLOAD,2024-01-19 11:16:19,15.08835485,0.0001773,53.2178,76.6651,68.5339,291.5842,7.3383e-05,8.8e-06,0.0,0 STARLINK-4103,1 53141U 22083K   24019.46967513  .00000880  00000-0  73383-4 0  9990,2 53141  53.2178  76.6651 0001773  68.5339 291.5842 15.08835485 84061,6917.894,95.438,540.986,538.533,0.0
53141.0,STARLINK-4103,PAYLOAD,2024-01-20 12:42:29,15.08848862,0.0001767,53.2176,71.9058,92.121,267.9985,0.00015288,2.146e-05,0.0,0 STARLINK-4103,1 53141U 22083K   24020.52950621  .00002146  00000-0  15288-3 0  9997,2 53141  53.2176  71.9058 0001767  92.1210 267.9985 15.08848862 83597,6917.853,95.437,540.941,538.496,0.0
53141.0,STARLINK-4103,PAYLOAD,2024-01-21 03:00:57,15.08842014,0.0001781,53.2162,69.2302,97.5742,262.5453,0.0001966,2.842e-05,0.0,0 STARLINK-4103,1 53141U 22083K   24021.12567026  .00002842  00000-0  19660-3 0  9998,2 53141  53.2162  69.2302 0001781  97.5742 262.5453 15.08842014 84314,6917.874,95.437,540.971,538.507,0.0
53141.0,STARLINK-4103,PAYLOAD,2024-01-21 12:33:16,15.08852857,0.0001779,53.2167,67.4448,108.9183,251.2002,0.00027721,4.128e-05,0.0,0 STARLINK-4103,1 53141U 22083K   24021.52310283  .00004128  00000-0  27721-3 0  9999,2 53141  53.2167  67.4448 0001779 108.9183 251.2002 15.08852857 84370,6917.841,95.437,540.937,538.475,0.0
53141.0,STARLINK-4103,PAYLOAD,2024-01-22 02:51:44,15.08845925,0.0001837,53.2185,64.7618,117.5264,242.5915,-4.4363e-06,-3.59e-06,0.0,0 STARLINK-4103,1 53141U 22083K   24022.11926524 -.00000359  00000-0 -44363-5 0  9993,2 53141  53.2185  64.7618 0001837 117.5264 242.5915 15.08845925 84464,6917.862,95.437,540.998,538.456,0.0
53141.0,STARLINK-4103,PAYLOAD,2024-01-22 06:02:30,15.08851048,0.0002203,53.2167,64.1728,117.8815,242.24,5.5515e-05,5.96e-06,0.0,0 STARLINK-4103,1 53141U 22083K   24022.25174199  .00000596  00000-0  55515-4 0  9992,2 53141  53.2167  64.1728 0002203 117.8815 242.2400 15.08851048 83854,6917.847,95.437,541.236,538.188,0.0
53141.0,STARLINK-4103,PAYLOAD,2024-01-22 09:13:17,15.08847874,0.0001931,53.2167,63.5813,105.8876,254.2329,0.00012048,1.63e-05,0.0,0 STARLINK-4103,1 53141U 22083K   24022.38422475  .00001630  00000-0  12048-3 0  9992,2 53141  53.2167  63.5813 0001931 105.8876 254.2329 15.08847874 83870,6917.856,95.437,541.057,538.385,0.0
53141.0,STARLINK-4103,PAYLOAD,2024-01-23 05:53:18,15.08837513,0.0001857,53.2168,59.7137,118.2023,241.9156,8.1074e-06,-1.59e-06,0.0,0 STARLINK-4103,1 53141U 22083K   24023.24534909 -.00000159  00000-0  81074-5 0  9997,2 53141  53.2168  59.7137 0001857 118.2023 241.9156 15.08837513 84002,6917.888,95.438,541.038,538.468,0.0
53141.0,STARLINK-4103,PAYLOAD,2024-01-23 09:04:04,15.08837287,0.0001736,53.2169,59.1191,114.2236,245.8938,1.7565e-05,-9e-08,0.0,0 STARLINK-4103,1 53141U 22083K   24023.37782990 -.00000009  00000-0  17565-4 0  9993,2 53141  53.2169  59.1191 0001736 114.2236 245.8938 15.08837287 84655,6917.889,95.438,540.955,538.553,0.0
53141.0,STARLINK-4103,PAYLOAD,2024-01-24 08:54:51,15.08852645,0.0001942,53.218,54.6624,108.1207,251.9997,0.0003442,5.196e-05,0.0,0 STARLINK-4103,1 53141U 22083K   24024.37142645  .00005196  00000-0  34420-3 0  9990,2 53141  53.2180  54.6624 0001942 108.1207 251.9997 15.08852645 84803,6917.842,95.437,541.05,538.363,0.0
53141.0,STARLINK-4103,PAYLOAD,2024-01-24 23:13:19,15.0884724,0.0001826,53.2182,51.9882,118.1122,242.0054,0.0002217,3.243e-05,0.0,0 STARLINK-4103,1 53141U 22083K   24024.96758661  .00003243  00000-0  22170-3 0  9996,2 53141  53.2182  51.9882 0001826 118.1122 242.0054 15.08847240 84898,6917.858,95.437,540.986,538.46,0.0
53141.0,STARLINK-4103,PAYLOAD,2024-01-25 07:10:15,15.08837741,0.000168,53.2173,50.5028,96.5627,263.5556,1.5444e-05,-4.2e-07,0.0,0 STARLINK-4103,1 53141U 22083K   24025.29879153 -.00000042  00000-0  15444-4 0  9995,2 53141  53.2173  50.5028 0001680  96.5627 263.5556 15.08837741 84948,6917.887,95.438,540.914,538.59,0.0
53141.0,STARLINK-4103,PAYLOAD,2024-01-26 08:36:26,15.08821901,0.0001734,53.218,45.7417,94.0939,266.0251,0.0004708,7.209e-05,0.0,0 STARLINK-4103,1 53141U 22083K   24026.35863784  .00007209  00000-0  47080-3 0  9997,2 53141  53.2180  45.7417 0001734  94.0939 266.0251 15.08821901 85103,6917.936,95.439,541.0,538.601,0.0
53141.0,STARLINK-4103,PAYLOAD,2024-01-27 08:27:13,15.0883893,0.0001588,53.2181,41.2825,85.7075,274.4099,0.00012898,1.765e-05,0.0,0 STARLINK-4103,1 53141U 22083K   24027.35223598  .00001765  00000-0  12898-3 0  9991,2 53141  53.2181  41.2825 0001588  85.7075 274.4099 15.08838930 84622,6917.884,95.438,540.847,538.65,0.0
53141.0,STARLINK-4103,PAYLOAD,2024-01-27 19:34:55,15.08841769,0.0001884,53.2189,39.2033,70.1946,289.925,0.00010744,1.422e-05,0.0,0 STARLINK-4103,1 53141U 22083K   24027.81591727  .00001422  00000-0  10744-3 0  9992,2 53141  53.2189  39.2033 0001884  70.1946 289.9250 15.08841769 85324,6917.875,95.437,541.043,538.437,0.0
53141.0,STARLINK-4103,PAYLOAD,2024-01-28 09:53:22,15.08849137,0.0001522,53.2174,36.5195,103.8774,256.2387,8.8673e-05,1.124e-05,0.0,0 STARLINK-4103,1 53141U 22083K   24028.41206959  .00001124  00000-0  88673-4 0  9995,2 53141  53.2174  36.5195 0001522 103.8774 256.2387 15.08849137 85414,6917.852,95.437,540.77,538.665,0.0
53141.0,STARLINK-4103,PAYLOAD,2024-01-29 09:44:09,15.08849687,0.0002263,53.2182,32.0563,142.1593,217.9558,8.262e-05,1.027e-05,0.0,0 STARLINK-4103,1 53141U 22083K   24029.40566568  .00001027  00000-0  82620-4 0  9998,2 53141  53.2182  32.0563 0002263 142.1593 217.9558 15.08849687 84931,6917.851,95.437,541.281,538.15,0.0
53141.0,STARLINK-4103,PAYLOAD,2024-01-30 03:13:24,15.08841001,0.0002361,53.218,28.7844,130.0917,230.0282,5.6805e-05,6.16e-06,0.0,0 STARLINK-4103,1 53141U 22083K   24030.13431356  .00000616  00000-0  56805-4 0  9995,2 53141  53.2180  28.7844 0002361 130.0917 230.0282 15.08841001 85672,6917.877,95.437,541.376,538.109,0.0
53141.0,STARLINK-4103,PAYLOAD,2024-01-30 09:34:57,15.08842164,0.0001814,53.2193,27.5982,113.0277,247.0906,5.1485e-05,5.31e-06,0.0,0 STARLINK-4103,1 53141U 22083K   24030.39927510  .00000531  00000-0  51485-4 0  9990,2 53141  53.2193  27.5982 0001814 113.0277 247.0906 15.08842164 85085,6917.874,95.437,540.994,538.484,0.0
53141.0,STARLINK-4103,PAYLOAD,2024-01-31 03:04:12,15.08822246,0.0002181,53.2194,24.326,129.5704,230.5481,0.00030893,4.63e-05,0.0,0 STARLINK-4103,1 53141U 22083K   24031.12791730  .00004630  00000-0  30893-3 0  9998,2 53141  53.2194  24.3260 0002181 129.5704 230.5481 15.08822246 85821,6917.935,95.439,541.308,538.291,0.0
53141.0,STARLINK-4103,PAYLOAD,2024-01-31 06:14:57,15.0884875,0.000166,53.2194,23.7321,95.3781,264.7401,5.4587e-07,-2.79e-06,0.0,0 STARLINK-4103,1 53141U 22083K   24031.26039348 -.00000279  00000-0  54587-6 0  9998,2 53141  53.2194  23.7321 0001660  95.3781 264.7401 15.08848750 85849,6917.854,95.437,540.867,538.57,0.0
53141.0,STARLINK-4103,PAYLOAD,2024-01-31 22:08:50,15.08824795,0.0001776,53.2193,20.7605,95.7894,264.33,0.00017573,2.509e-05,0.0,0 STARLINK-4103,1 53141U 22083K   24031.92280742  .00002509  00000-0  17573-3 0  9995,2 53141  53.2193  20.7605 0001776  95.7894 264.3300 15.08824795 85316,6917.927,95.439,541.02,538.563,0.0
53141.0,STARLINK-4103,PAYLOAD,2024-02-01 02:54:59,15.08832767,0.0001761,53.2191,19.8679,104.4513,255.6675,2.7108e-05,1.43e-06,0.0,0 STARLINK-4103,1 53141U 22083K   24032.12152458  .00000143  00000-0  27108-4 0  9998,2 53141  53.2191  19.8679 0001761 104.4513 255.6675 15.08832767 85972,6917.902,95.438,540.986,538.549,0.0
53141.0,STARLINK-4103,PAYLOAD,2024-02-01 09:16:32,15.08834106,0.0001655,53.2191,18.6778,108.2462,251.871,2.4325e-05,9.9e-07,0.0,0 STARLINK-4103,1 53141U 22083K   24032.38648422  .00000099  00000-0  24325-4 0  9995,2 53141  53.2191  18.6778 0001655 108.2462 251.8710 15.08834106 85388,6917.898,95.438,540.908,538.618,0.0
53141.0,STARLINK-4103,PAYLOAD,2024-02-02 04:21:09,15.08848068,0.0001615,53.2193,15.1103,110.6528,249.4638,-3.0293e-05,-7.7e-06,0.0,0 STARLINK-4103,1 53141U 22083K   24033.18135954 -.00000770  00000-0 -30293-4 0  9994,2 53141  53.2193  15.1103 0001615 110.6528 249.4638 15.08848068 86138,6917.856,95.437,540.838,538.603,0.0
53141.0,STARLINK-4103,PAYLOAD,2024-02-02 07:31:55,15.08847186,0.000157,53.219,14.5156,100.19,259.9269,7.4442e-05,8.97e-06,0.0,0 STARLINK-4103,1 53141U 22083K   24033.31383749  .00000897  00000-0  74442-4 0  9998,2 53141  53.2190  14.5156 0001570 100.1900 259.9269 15.08847186 85522,6917.858,95.437,540.81,538.637,0.0
53141.0,STARLINK-4103,PAYLOAD,2024-02-03 04:11:57,15.08833758,0.0001665,53.2199,10.6505,84.7904,275.3279,7.2086e-05,8.59e-06,0.0,0 STARLINK-4103,1 53141U 22083K   24034.17496931  .00000859  00000-0  72086-4 0  9991,2 53141  53.2199  10.6505 0001665  84.7904 275.3279 15.08833758 86289,6917.899,95.438,540.916,538.613,0.0
53141.0,STARLINK-4103,PAYLOAD,2024-02-03 07:22:43,15.08838713,0.0001548,53.2195,10.0554,85.1719,274.945,0.00010276,1.348e-05,0.0,0 STARLINK-4103,1 53141U 22083K   24034.30744619  .00001348  00000-0  10276-3 0  9991,2 53141  53.2195  10.0554 0001548  85.1719 274.9450 15.08838713 85676,6917.884,95.438,540.82,538.678,0.0
53141.0,STARLINK-4103,PAYLOAD,2024-02-04 04:02:43,15.08844841,0.0001661,53.2201,6.1894,83.0732,277.0449,8.4677e-05,1.06e-05,0.0,0 STARLINK-4103,1 53141U 22083K   24035.16856299  .00001060  00000-0  84677-4 0  9992,2 53141  53.2201   6.1894 0001661  83.0732 277.0449 15.08844841 86431,6917.866,95.437,540.88,538.582,0.0
